[{"OBJECT_NAME":"SL-8 R/B","OBJECT_ID":"1979-089B","EPOCH":"2026-03-15T07:03:43.306272","MEAN_MOTION":14.42354761,"ECCENTRICITY":0.00170826,"INCLINATION":74.0667,"RA_OF_ASC_NODE":80.6675,"ARG_OF_PERICENTER":252.7713,"MEAN_ANOMALY":107.1574,"EPHEMERIS_TYPE":0,"CLASSIFICATION_TYPE":"U","NORAD_CAT_ID":11574,"ELEMENT_SET_NO":999,"REV_AT_EPOCH":43691,"BSTAR":0.00010452202,"MEAN_MOTION_DOT":3.19e-6,"MEAN_MOTION_DDOT":0},{"OBJECT_NAME":"SL-14 R/B","OBJECT_ID":"1980-005B","EPOCH":"2026-03-15T00:42:42.803712","MEAN_MOTION":14.9093706,"ECCENTRICITY":0.00166128,"INCLINATION":82.5135,"RA_OF_ASC_NODE":302.1707,"ARG_OF_PERICENTER":141.2426,"MEAN_ANOMALY":218.9988,"EPHEMERIS_TYPE":0,"CLASSIFICATION_TYPE":"U","NORAD_CAT_ID":11672,"ELEMENT_SET_NO":999,"REV_AT_EPOCH":47728,"BSTAR":5.8176891e-5,"MEAN_MOTION_DOT":6.01e-6,"MEAN_MOTION_DDOT":0},{"OBJECT_NAME":"SL-8 R/B","OBJECT_ID":"1981-003B","EPOCH":"2026-03-15T00:48:24.404256","MEAN_MOTION":15.11208074,"ECCENTRICITY":0.02616082,"INCLINATION":82.9381,"RA_OF_ASC_NODE":285.0826,"ARG_OF_PERICENTER":160.0162,"MEAN_ANOMALY":201.1555,"EPHEMERIS_TYPE":0,"CLASSIFICATION_TYPE":"U","NORAD_CAT_ID":12139,"ELEMENT_SET_NO":999,"REV_AT_EPOCH":31548,"BSTAR":0.00060095526,"MEAN_MOTION_DOT":0.00023559,"MEAN_MOTION_DDOT":0},{"OBJECT_NAME":"SL-3 R/B","OBJECT_ID":"1981-046B","EPOCH":"2026-03-15T07:11:57.198912","MEAN_MOTION":15.42151031,"ECCENTRICITY":0.00191076,"INCLINATION":81.2294,"RA_OF_ASC_NODE":283.0065,"ARG_OF_PERICENTER":2.8803,"MEAN_ANOMALY":357.2546,"EPHEMERIS_TYPE":0,"CLASSIFICATION_TYPE":"U","NORAD_CAT_ID":12465,"ELEMENT_SET_NO":999,"REV_AT_EPOCH":43929,"BSTAR":0.00031260264,"MEAN_MOTION_DOT":0.00013514,"MEAN_MOTION_DDOT":0},{"OBJECT_NAME":"SL-3 R/B","OBJECT_ID":"1981-103B","EPOCH":"2026-03-15T05:32:47.079744","MEAN_MOTION":15.21453169,"ECCENTRICITY":0.00124233,"INCLINATION":81.1593,"RA_OF_ASC_NODE":206.9317,"ARG_OF_PERICENTER":266.6108,"MEAN_ANOMALY":93.3702,"EPHEMERIS_TYPE":0,"CLASSIFICATION_TYPE":"U","NORAD_CAT_ID":12904,"ELEMENT_SET_NO":999,"REV_AT_EPOCH":97407,"BSTAR":0.00029705184,"MEAN_MOTION_DOT":6.712e-5,"MEAN_MOTION_DDOT":0},{"OBJECT_NAME":"SL-3 R/B","OBJECT_ID":"1982-013B","EPOCH":"2026-03-15T07:15:46.781856","MEAN_MOTION":15.22076189,"ECCENTRICITY":0.0023005,"INCLINATION":81.1761,"RA_OF_ASC_NODE":154.1929,"ARG_OF_PERICENTER":158.5503,"MEAN_ANOMALY":201.6699,"EPHEMERIS_TYPE":0,"CLASSIFICATION_TYPE":"U","NORAD_CAT_ID":13068,"ELEMENT_SET_NO":999,"REV_AT_EPOCH":40520,"BSTAR":0.00023210198,"MEAN_MOTION_DOT":5.374e-5,"MEAN_MOTION_DDOT":0},{"OBJECT_NAME":"SL-3 R/B","OBJECT_ID":"1982-039B","EPOCH":"2026-03-15T06:56:09.394368","MEAN_MOTION":15.10117464,"ECCENTRICITY":0.00294693,"INCLINATION":81.1576,"RA_OF_ASC_NODE":209.5063,"ARG_OF_PERICENTER":306.1752,"MEAN_ANOMALY":53.6748,"EPHEMERIS_TYPE":0,"CLASSIFICATION_TYPE":"U","NORAD_CAT_ID":13154,"ELEMENT_SET_NO":999,"REV_AT_EPOCH":38248,"BSTAR":0.00018004942,"MEAN_MOTION_DOT":2.986e-5,"MEAN_MOTION_DDOT":0},{"OBJECT_NAME":"SL-3 R/B","OBJECT_ID":"1982-079B","EPOCH":"2026-03-15T05:52:20.017632","MEAN_MOTION":15.24890629,"ECCENTRICITY":0.00252703,"INCLINATION":81.1484,"RA_OF_ASC_NODE":186.5187,"ARG_OF_PERICENTER":146.3391,"MEAN_ANOMALY":213.9454,"EPHEMERIS_TYPE":0,"CLASSIFICATION_TYPE":"U","NORAD_CAT_ID":13403,"ELEMENT_SET_NO":999,"REV_AT_EPOCH":37854,"BSTAR":0.00031833559,"MEAN_MOTION_DOT":8.015e-5,"MEAN_MOTION_DDOT":0},{"OBJECT_NAME":"SL-14 R/B","OBJECT_ID":"1982-092B","EPOCH":"2026-03-15T05:30:31.227840","MEAN_MOTION":14.86671958,"ECCENTRICITY":0.00188051,"INCLINATION":82.5683,"RA_OF_ASC_NODE":136.218,"ARG_OF_PERICENTER":283.8375,"MEAN_ANOMALY":135.0531,"EPHEMERIS_TYPE":0,"CLASSIFICATION_TYPE":"U","NORAD_CAT_ID":13553,"ELEMENT_SET_NO":999,"REV_AT_EPOCH":32975,"BSTAR":4.7586838e-5,"MEAN_MOTION_DOT":4.48e-6,"MEAN_MOTION_DDOT":0},{"OBJECT_NAME":"SL-3 R/B","OBJECT_ID":"1983-010B","EPOCH":"2026-03-15T06:15:35.309376","MEAN_MOTION":15.4657397,"ECCENTRICITY":0.00174867,"INCLINATION":81.1063,"RA_OF_ASC_NODE":355.4167,"ARG_OF_PERICENTER":32.9646,"MEAN_ANOMALY":327.2685,"EPHEMERIS_TYPE":0,"CLASSIFICATION_TYPE":"U","NORAD_CAT_ID":13819,"ELEMENT_SET_NO":999,"REV_AT_EPOCH":35880,"BSTAR":0.00039146772,"MEAN_MOTION_DOT":0.00019638,"MEAN_MOTION_DDOT":0},{"OBJECT_NAME":"SL-3 R/B","OBJECT_ID":"1983-075B","EPOCH":"2026-03-15T06:44:05.381376","MEAN_MOTION":15.38564352,"ECCENTRICITY":0.00206628,"INCLINATION":97.6139,"RA_OF_ASC_NODE":79.0701,"ARG_OF_PERICENTER":204.7295,"MEAN_ANOMALY":155.2961,"EPHEMERIS_TYPE":0,"CLASSIFICATION_TYPE":"U","NORAD_CAT_ID":14208,"ELEMENT_SET_NO":999,"REV_AT_EPOCH":33101,"BSTAR":0.00033652435,"MEAN_MOTION_DOT":0.00012822,"MEAN_MOTION_DDOT":0},{"OBJECT_NAME":"COSMOS 1536","OBJECT_ID":"1984-013A","EPOCH":"2026-03-15T07:14:01.893984","MEAN_MOTION":15.23904956,"ECCENTRICITY":0.0012413,"INCLINATION":82.5421,"RA_OF_ASC_NODE":102.2708,"ARG_OF_PERICENTER":260.9718,"MEAN_ANOMALY":99.0115,"EPHEMERIS_TYPE":0,"CLASSIFICATION_TYPE":"U","NORAD_CAT_ID":14699,"ELEMENT_SET_NO":999,"REV_AT_EPOCH":27347,"BSTAR":0.00028852342,"MEAN_MOTION_DOT":7.013e-5,"MEAN_MOTION_DDOT":0},{"OBJECT_NAME":"SL-14 R/B","OBJECT_ID":"1984-027B","EPOCH":"2026-03-14T22:41:26.897280","MEAN_MOTION":14.85982789,"ECCENTRICITY":0.00169687,"INCLINATION":82.5394,"RA_OF_ASC_NODE":240.0823,"ARG_OF_PERICENTER":319.7746,"MEAN_ANOMALY":40.2214,"EPHEMERIS_TYPE":0,"CLASSIFICATION_TYPE":"U","NORAD_CAT_ID":14820,"ELEMENT_SET_NO":999,"REV_AT_EPOCH":24841,"BSTAR":6.6255509e-5,"MEAN_MOTION_DOT":6.04e-6,"MEAN_MOTION_DDOT":0},{"OBJECT_NAME":"SL-8 R/B","OBJECT_ID":"1985-006B","EPOCH":"2026-03-14T22:57:41.066784","MEAN_MOTION":14.37787427,"ECCENTRICITY":0.00182074,"INCLINATION":74.0433,"RA_OF_ASC_NODE":251.4554,"ARG_OF_PERICENTER":167.8816,"MEAN_ANOMALY":308.6977,"EPHEMERIS_TYPE":0,"CLASSIFICATION_TYPE":"U","NORAD_CAT_ID":15483,"ELEMENT_SET_NO":999,"REV_AT_EPOCH":15478,"BSTAR":0.00013784486,"MEAN_MOTION_DOT":3.9e-6,"MEAN_MOTION_DDOT":0},{"OBJECT_NAME":"SL-12 R/B(2)","OBJECT_ID":"1985-042D","EPOCH":"2026-03-15T05:48:11.157120","MEAN_MOTION":14.21984054,"ECCENTRICITY":0.0033048,"INCLINATION":71.1063,"RA_OF_ASC_NODE":75.9975,"ARG_OF_PERICENTER":118.9917,"MEAN_ANOMALY":252.5337,"EPHEMERIS_TYPE":0,"CLASSIFICATION_TYPE":"U","NORAD_CAT_ID":15772,"ELEMENT_SET_NO":999,"REV_AT_EPOCH":11518,"BSTAR":8.2655676e-5,"MEAN_MOTION_DOT":1.36e-6,"MEAN_MOTION_DDOT":0},{"OBJECT_NAME":"SL-14 R/B","OBJECT_ID":"1985-069B","EPOCH":"2026-03-15T06:21:55.290528","MEAN_MOTION":14.864401,"ECCENTRICITY":0.00189815,"INCLINATION":82.5293,"RA_OF_ASC_NODE":19.691,"ARG_OF_PERICENTER":169.1792,"MEAN_ANOMALY":190.9837,"EPHEMERIS_TYPE":0,"CLASSIFICATION_TYPE":"U","NORAD_CAT_ID":15945,"ELEMENT_SET_NO":999,"REV_AT_EPOCH":17366,"BSTAR":6.050019e-5,"MEAN_MOTION_DOT":5.6e-6,"MEAN_MOTION_DDOT":0},{"OBJECT_NAME":"SL-16 R/B","OBJECT_ID":"1985-097B","EPOCH":"2026-03-15T06:48:30.668256","MEAN_MOTION":14.16598249,"ECCENTRICITY":0.00097483,"INCLINATION":71.0017,"RA_OF_ASC_NODE":128.7778,"ARG_OF_PERICENTER":252.8099,"MEAN_ANOMALY":174.0366,"EPHEMERIS_TYPE":0,"CLASSIFICATION_TYPE":"U","NORAD_CAT_ID":16182,"ELEMENT_SET_NO":999,"REV_AT_EPOCH":8802,"BSTAR":4.4628062e-5,"MEAN_MOTION_DOT":4.1e-7,"MEAN_MOTION_DDOT":0}]
