SL-8 R/B                
1 11574U 79089B   26074.29425123  .00000319  00000+0  10452-3 0  9995
2 11574  74.0667  80.6675 0017082 252.7713 107.1574 14.42354761436912
SL-14 R/B               
1 11672U 80005B   26074.02966208  .00000601  00000+0  58177-4 0  9990
2 11672  82.5135 302.1707 0016612 141.2426 218.9988 14.90937060477281
SL-8 R/B                
1 12139U 81003B   26074.03361579  .00023559  00000+0  60096-3 0  9998
2 12139  82.9381 285.0826 0261608 160.0162 201.1555 15.11208074315488
SL-3 R/B                
1 12465U 81046B   26074.29996758  .00013514  00000+0  31260-3 0  9999
2 12465  81.2294 283.0065 0019107   2.8803 357.2546 15.42151031439291
SL-3 R/B                
1 12904U 81103B   26074.23110046  .00006712  00000+0  29705-3 0  9996
2 12904  81.1593 206.9317 0012423 266.6108  93.3702 15.21453169974072
SL-3 R/B                
1 13068U 82013B   26074.30262479  .00005374  00000+0  23210-3 0  9993
2 13068  81.1761 154.1929 0023005 158.5503 201.6699 15.22076189405207
SL-3 R/B                
1 13154U 82039B   26074.28899762  .00002986  00000+0  18005-3 0  9997
2 13154  81.1576 209.5063 0029469 306.1752  53.6748 15.10117464382481
SL-3 R/B                
1 13403U 82079B   26074.24467613  .00008015  00000+0  31834-3 0  9994
2 13403  81.1484 186.5187 0025270 146.3391 213.9454 15.24890629378549
SL-14 R/B               
1 13553U 82092B   26074.22952810  .00000448  00000+0  47587-4 0  9996
2 13553  82.5683 136.2180 0018805 283.8375 135.0531 14.86671958329759
SL-3 R/B                
1 13819U 83010B   26074.26082534  .00019638  00000+0  39147-3 0  9996
2 13819  81.1063 355.4167 0017486  32.9646 327.2685 15.46573970358804
SL-3 R/B                
1 14208U 83075B   26074.28061784  .00012822  00000+0  33652-3 0  9999
2 14208  97.6139  79.0701 0020662 204.7295 155.2961 15.38564352331010
COSMOS 1536             
1 14699U 84013A   26074.30141081  .00007013  00000+0  28852-3 0  9990
2 14699  82.5421 102.2708 0012413 260.9718  99.0115 15.23904956273479
SL-14 R/B               
1 14820U 84027B   26073.94545020  .00000604  00000+0  66256-4 0  9991
2 14820  82.5394 240.0823 0016968 319.7746  40.2214 14.85982789248417
SL-8 R/B                
1 15483U 85006B   26073.95672531  .00000390  00000+0  13784-3 0  9993
2 15483  74.0433 251.4554 0018207 167.8816 308.6977 14.37787427154780
SL-12 R/B(2)            
1 15772U 85042D   26074.24179580  .00000136  00000+0  82656-4 0  9996
2 15772  71.1063  75.9975 0033048 118.9917 252.5337 14.21984054115189
SL-14 R/B               
1 15945U 85069B   26074.26522327  .00000560  00000+0  60500-4 0  9995
2 15945  82.5293  19.6910 0018981 169.1792 190.9837 14.86440100173661
SL-16 R/B               
1 16182U 85097B   26074.28368829  .00000041  00000+0  44628-4 0  9994
2 16182  71.0017 128.7778 0009748 252.8099 174.0366 14.16598249 88023
